[{"OBJECT_NAME":"OBJECT K","OBJECT_ID":"2024-092K","EPOCH":"2026-03-09T22:27:09.905184","MEAN_MOTION":15.32834875,"ECCENTRICITY":0.00087198,"INCLINATION":97.6413,"RA_OF_ASC_NODE":198.1023,"ARG_OF_PERICENTER":142.4952,"MEAN_ANOMALY":217.69,"EPHEMERIS_TYPE":0,"CLASSIFICATION_TYPE":"U","NORAD_CAT_ID":59809,"ELEMENT_SET_NO":999,"REV_AT_EPOCH":10001,"BSTAR":0.0007267688,"MEAN_MOTION_DOT":0.00023035,"MEAN_MOTION_DDOT":0},{"OBJECT_NAME":"STARLINK-35081","OBJECT_ID":"2025-240C","EPOCH":"2026-03-09T23:12:45.392256","MEAN_MOTION":15.30212281,"ECCENTRICITY":0.00023754,"INCLINATION":53.1616,"RA_OF_ASC_NODE":61.3252,"ARG_OF_PERICENTER":79.1326,"MEAN_ANOMALY":280.9942,"EPHEMERIS_TYPE":0,"CLASSIFICATION_TYPE":"U","NORAD_CAT_ID":66148,"ELEMENT_SET_NO":999,"REV_AT_EPOCH":2203,"BSTAR":0.00086239339,"MEAN_MOTION_DOT":0.0002528,"MEAN_MOTION_DDOT":0}]
